QIANFAN-49              
1 62250U 24232P   26008.13311696  .00000037  00000+0  38257-4 0  9992
2 62250  89.0004  38.5713 0016013 116.1027 244.1774 13.50983099 71402
QIANFAN-50              
1 62251U 24232Q   26008.15783456  .00000038  00000+0  40147-4 0  9994
2 62251  89.0009  38.5783 0017648 117.5000 242.7948 13.50979938 71433
QIANFAN-51              
1 62252U 24232R   26008.14135962  .00000044  00000+0  48709-4 0  9996
2 62252  89.0003  38.5722 0015096 120.3648 239.8998 13.50982576 71429
QIANFAN-52              
1 62253U 24232S   26008.09614100  .00000036  00000+0  36499-4 0  9991
2 62253  88.9999  38.4494 0017197 113.9558 246.3396 13.50980619 71509
QIANFAN-53              
1 62254U 24232T   26008.14956904  .00000047  00000+0  53519-4 0  9993
2 62254  89.0007  38.5505 0016063 114.6265 245.6561 13.50983177 71474
QIANFAN-54              
1 62255U 24232U   26008.11663444  .00000044  00000+0  49715-4 0  9995
2 62255  88.9998  38.2299 0003445 128.1875 231.9587 13.50983538102973
QIANFAN-55              
1 62785U 25016A   26007.92041515  .00000182  00000+0  26359-3 0  9992
2 62785  88.9776 100.5101 0015547 270.7962  89.1408 13.50984891 50720
QIANFAN-56              
1 62786U 25016B   26007.93688593  .00000159  00000+0  22728-3 0  9997
2 62786  88.9750 100.3378 0014173 273.2060  86.7470 13.50987414 50779
